FALCONSAT-6             
1 43815U 18099BK  26068.72544389  .00005029  00000+0  19477-3 0  9998
2 43815  97.3865 145.8165 0014370 297.0944 181.0714 15.26532865398556
STARLINK-30277          
1 57645U 23122P   26068.07852258 -.00003826  00000+0 -12984-3 0  9993
2 57645  43.0020 313.8516 0001217 270.3768  89.6944 15.27517907143786
